{
  "type": "FeatureCollection",
  "features": [
    {
      "type": "Feature",
      "properties": {
        "norad_id": 31328,
        "name": "FENGYUN 1C DEB",
        "group": "fengyun-1c-debris",
        "lat": 13.55081614899406,
        "lon": 156.3420015477144,
        "alt_km": 722.1745566629306,
        "timestamp": "2025-12-26T21:25:53.292149+00:00",
        "meta_object_name": "FENGYUN 1C DEB",
        "meta_object_id": "1999-025BQG",
        "meta_epoch": "2025-12-26T08:53:31.987104",
        "meta_mean_motion": 14.2895003,
        "meta_eccentricity": 0.01043612,
        "meta_inclination": 98.4852,
        "meta_ra_of_asc_node": 333.7716,
        "meta_arg_of_pericenter": 176.173,
        "meta_mean_anomaly": 184.0275,
        "meta_ephemeris_type": 0,
        "meta_classification_type": "U",
        "meta_norad_cat_id": 31328,
        "meta_element_set_no": 999,
        "meta_rev_at_epoch": 97657,
        "meta_bstar": 7.2361975e-05,
        "meta_mean_motion_dot": 1.51e-06,
        "meta_mean_motion_ddot": 0,
        "tle_line1": "1 31328U 99025BQG 25360.37050911  .00000151  00000+0  72362-4 0  9994",
        "tle_line2": "2 31328  98.4852 333.7716 0104361 176.1730 184.0275 14.28950030976578"
      },
      "geometry": {
        "type": "Point",
        "coordinates": [
          156.3420015477144,
          13.55081614899406
        ]
      }
    },
    {
      "type": "Feature",
      "properties": {
        "norad_id": 31330,
        "name": "FENGYUN 1C DEB",
        "group": "fengyun-1c-debris",
        "lat": -54.502482551108315,
        "lon": -25.02038805386039,
        "alt_km": 526.9799468081201,
        "timestamp": "2025-12-26T21:25:53.292159+00:00",
        "meta_object_name": "FENGYUN 1C DEB",
        "meta_object_id": "1999-025BQJ",
        "meta_epoch": "2025-12-25T12:52:55.224192",
        "meta_mean_motion": 15.14747166,
        "meta_eccentricity": 9.19e-05,
        "meta_inclination": 98.8832,
        "meta_ra_of_asc_node": 166.0642,
        "meta_arg_of_pericenter": 318.3558,
        "meta_mean_anomaly": 84.6417,
        "meta_ephemeris_type": 0,
        "meta_classification_type": "U",
        "meta_norad_cat_id": 31330,
        "meta_element_set_no": 999,
        "meta_rev_at_epoch": 97323,
        "meta_bstar": 0.010685,
        "meta_mean_motion_dot": 0.00203581,
        "meta_mean_motion_ddot": 0,
        "tle_line1": "1 31330U 99025BQJ 25359.53675028  .00203581  00000+0  10685-1 0  9994",
        "tle_line2": "2 31330  98.8832 166.0642 0000919 318.3558  84.6417 15.14747166973233"
      },
      "geometry": {
        "type": "Point",
        "coordinates": [
          -25.02038805386039,
          -54.502482551108315
        ]
      }
    },
    {
      "type": "Feature",
      "properties": {
        "norad_id": 31331,
        "name": "FENGYUN 1C DEB",
        "group": "fengyun-1c-debris",
        "lat": 34.04875758724877,
        "lon": -147.62946639840047,
        "alt_km": 850.5105398622736,
        "timestamp": "2025-12-26T21:25:53.292169+00:00",
        "meta_object_name": "FENGYUN 1C DEB",
        "meta_object_id": "1999-025BQK",
        "meta_epoch": "2025-12-19T07:00:29.877408",
        "meta_mean_motion": 14.00628517,
        "meta_eccentricity": 0.0053435,
        "meta_inclination": 98.8725,
        "meta_ra_of_asc_node": 18.9328,
        "meta_arg_of_pericenter": 164.3513,
        "meta_mean_anomaly": 195.9319,
        "meta_ephemeris_type": 0,
        "meta_classification_type": "U",
        "meta_norad_cat_id": 31331,
        "meta_element_set_no": 999,
        "meta_rev_at_epoch": 63948,
        "meta_bstar": 0.00038925,
        "meta_mean_motion_dot": 5.44e-06,
        "meta_mean_motion_ddot": 0,
        "tle_line1": "1 31331U 99025BQK 25353.29201247  .00000544  00000+0  38925-3 0  9993",
        "tle_line2": "2 31331  98.8725  18.9328 0053435 164.3513 195.9319 14.00628517639487"
      },
      "geometry": {
        "type": "Point",
        "coordinates": [
          -147.62946639840047,
          34.04875758724877
        ]
      }
    },
    {
      "type": "Feature",
      "properties": {
        "norad_id": 31332,
        "name": "FENGYUN 1C DEB",
        "group": "fengyun-1c-debris",
        "lat": 4.810413495790179,
        "lon": -168.44845399007644,
        "alt_km": 890.3737175265196,
        "timestamp": "2025-12-26T21:25:53.292179+00:00",
        "meta_object_name": "FENGYUN 1C DEB",
        "meta_object_id": "1999-025BQL",
        "meta_epoch": "2025-12-26T12:50:19.293792",
        "meta_mean_motion": 14.11886211,
        "meta_eccentricity": 0.00494534,
        "meta_inclination": 98.706,
        "meta_ra_of_asc_node": 10.4652,
        "meta_arg_of_pericenter": 345.8604,
        "meta_mean_anomaly": 170.4714,
        "meta_ephemeris_type": 0,
        "meta_classification_type": "U",
        "meta_norad_cat_id": 31332,
        "meta_element_set_no": 999,
        "meta_rev_at_epoch": 96166,
        "meta_bstar": 0.00085491736,
        "meta_mean_motion_dot": 1.537e-05,
        "meta_mean_motion_ddot": 0,
        "tle_line1": "1 31332U 99025BQL 25360.53494553  .00001537  00000+0  85492-3 0  9997",
        "tle_line2": "2 31332  98.7060  10.4652 0049453 345.8604 170.4714 14.11886211961662"
      },
      "geometry": {
        "type": "Point",
        "coordinates": [
          -168.44845399007644,
          4.810413495790179
        ]
      }
    },
    {
      "type": "Feature",
      "properties": {
        "norad_id": 31333,
        "name": "FENGYUN 1C DEB",
        "group": "fengyun-1c-debris",
        "lat": 57.49862677960545,
        "lon": 1.4867814762693623,
        "alt_km": 777.017651074907,
        "timestamp": "2025-12-26T21:25:53.292190+00:00",
        "meta_object_name": "FENGYUN 1C DEB",
        "meta_object_id": "1999-025BQM",
        "meta_epoch": "2025-12-20T18:42:54.770112",
        "meta_mean_motion": 14.26566831,
        "meta_eccentricity": 0.00982731,
        "meta_inclination": 98.4277,
        "meta_ra_of_asc_node": 9.0567,
        "meta_arg_of_pericenter": 2.9268,
        "meta_mean_anomaly": 357.2467,
        "meta_ephemeris_type": 0,
        "meta_classification_type": "U",
        "meta_norad_cat_id": 31333,
        "meta_element_set_no": 999,
        "meta_rev_at_epoch": 96706,
        "meta_bstar": 0.00048897512,
        "meta_mean_motion_dot": 1.199e-05,
        "meta_mean_motion_ddot": 0,
        "tle_line1": "1 31333U 99025BQM 25354.77980058  .00001199  00000+0  48898-3 0  9990",
        "tle_line2": "2 31333  98.4277   9.0567 0098273   2.9268 357.2467 14.26566831967069"
      },
      "geometry": {
        "type": "Point",
        "coordinates": [
          1.4867814762693623,
          57.49862677960545
        ]
      }
    },
    {
      "type": "Feature",
      "properties": {
        "norad_id": 31336,
        "name": "FENGYUN 1C DEB",
        "group": "fengyun-1c-debris",
        "lat": 60.737805382785886,
        "lon": 40.517521487415685,
        "alt_km": 691.8841960363216,
        "timestamp": "2025-12-26T21:25:53.292201+00:00",
        "meta_object_name": "FENGYUN 1C DEB",
        "meta_object_id": "1999-025BQQ",
        "meta_epoch": "2025-12-25T15:47:51.662976",
        "meta_mean_motion": 14.38725938,
        "meta_eccentricity": 0.0093912,
        "meta_inclination": 98.4632,
        "meta_ra_of_asc_node": 54.7102,
        "meta_arg_of_pericenter": 80.4015,
        "meta_mean_anomaly": 70.262,
        "meta_ephemeris_type": 0,
        "meta_classification_type": "U",
        "meta_norad_cat_id": 31336,
        "meta_element_set_no": 999,
        "meta_rev_at_epoch": 97976,
        "meta_bstar": 0.00029728,
        "meta_mean_motion_dot": 9.16e-06,
        "meta_mean_motion_ddot": 0,
        "tle_line1": "1 31336U 99025BQQ 25359.65823684  .00000916  00000+0  29728-3 0  9993",
        "tle_line2": "2 31336  98.4632  54.7102 0093912  80.4015  70.2620 14.38725938979766"
      },
      "geometry": {
        "type": "Point",
        "coordinates": [
          40.517521487415685,
          60.737805382785886
        ]
      }
    },
    {
      "type": "Feature",
      "properties": {
        "norad_id": 31338,
        "name": "FENGYUN 1C DEB",
        "group": "fengyun-1c-debris",
        "lat": 12.87538933706704,
        "lon": 22.72132929455759,
        "alt_km": 831.2606066602148,
        "timestamp": "2025-12-26T21:25:53.292211+00:00",
        "meta_object_name": "FENGYUN 1C DEB",
        "meta_object_id": "1999-025BQS",
        "meta_epoch": "2025-12-24T19:38:38.429376",
        "meta_mean_motion": 14.20844571,
        "meta_eccentricity": 0.00720648,
        "meta_inclination": 98.7165,
        "meta_ra_of_asc_node": 198.6657,
        "meta_arg_of_pericenter": 73.8557,
        "meta_mean_anomaly": 287.0537,
        "meta_ephemeris_type": 0,
        "meta_classification_type": "U",
        "meta_norad_cat_id": 31338,
        "meta_element_set_no": 999,
        "meta_rev_at_epoch": 63829,
        "meta_bstar": 0.0023341859,
        "meta_mean_motion_dot": 5.139e-05,
        "meta_mean_motion_ddot": 0,
        "tle_line1": "1 31338U 99025BQS 25358.81850034  .00005139  00000+0  23342-2 0  9998",
        "tle_line2": "2 31338  98.7165 198.6657 0072064  73.8557 287.0537 14.20844571638298"
      },
      "geometry": {
        "type": "Point",
        "coordinates": [
          22.72132929455759,
          12.87538933706704
        ]
      }
    }
  ]
}